IRIDIUM 921             
1 24873U 97034E   24277.15929759  .00156511  00000+0  26514-2 0  9994
2 24873  86.3762 234.2306 0007637 124.0979 236.1006 15.50958464492126
IRIDIUM 26              
1 24903U 97043A   24276.88078075  .00002714  00000+0  91608-3 0  9995
2 24903  86.3992 218.5573 0002251  88.0412 272.1042 14.36644452419798
IRIDIUM 22              
1 24907U 97043E   24277.15964844  .00002427  00000+0  83735-3 0  9991
2 24907  86.3989 221.7598 0002412  84.7806 275.3666 14.35511872419885
DUMMY MASS 1            
1 24925U 97048A   24277.18070402  .00002269  00000+0  25375-3 0  9997
2 24925  86.3305 254.0568 0006270 359.9836   0.1387 14.86467991467187
DUMMY MASS 2            
1 24926U 97048B   24276.69631526  .00002195  00000+0  24683-3 0  9992
2 24926  86.3301 255.8435 0007597  10.2325 349.9052 14.86222280466653
IRIDIUM 29              
1 24944U 97051A   24276.98936680  .00002588  00000+0  88544-3 0  9999
2 24944  86.3916 251.6776 0002454  82.9398 277.2078 14.35957977416579
IRIDIUM 33              
1 24946U 97051C   24277.18902362  .00001737  00000+0  60911-3 0  9997
2 24946  86.3832 250.8400 0007478 180.3611 179.7581 14.34540631415900
IRIDIUM 28              
1 24948U 97051E   24277.20025929  .00002424  00000+0  81317-3 0  9994
2 24948  86.3926 249.2494 0002189  98.0671 262.0774 14.36910045417001
